#aV2020 11 10  0  0  0.00000000     288 DD+AD WGS84 FIT  NGA
## 2131 172800.00000000   300.00000000 59163 0.0000000000000
+   31     1  2  3  4  5  6  7  8  9 10 11 12 13 15 16 17 18
+         19 20 21 22 23 24 25 26 27 28 29 30 31 32  0  0  0
+          0  0  0  0  0  0  0  0  0  0  0  0  0  0  0  0  0
+          0  0  0  0  0  0  0  0  0  0  0  0  0  0  0  0  0
+          0  0  0  0  0  0  0  0  0  0  0  0  0  0  0  0  0
++         2  2  2  2  2  2  2  2  2  2  2  2  2  2  2  2  2
++         2  2  2  2  2  2  2  2  2  2  2  2  2  2  0  0  0
++         0  0  0  0  0  0  0  0  0  0  0  0  0  0  0  0  0
++         0  0  0  0  0  0  0  0  0  0  0  0  0  0  0  0  0
++         0  0  0  0  0  0  0  0  0  0  0  0  0  0  0  0  0
%c cc cc ccc ccc cccc cccc cccc cccc ccccc ccccc ccccc ccccc
%c cc cc ccc ccc cccc cccc cccc cccc ccccc ccccc ccccc ccccc
%f  0.0000000  0.000000000  0.00000000000  0.000000000000000
%f  0.0000000  0.000000000  0.00000000000  0.000000000000000
%i    0    0    0    0      0      0      0      0         0
%i    0    0    0    0      0      0      0      0         0
/*      NGA, ST. LOUIS,MO.                                  
/*   EPHEMERIS COMPUTED FROM 2 DAYS OF DATA                 
/*   EPOCHA v5 SMOOTHER                                     
/*   G1762 IERS2010 SATAF SATAPC                            
*  2020 11 10  6 15  0.00000000
P  1  13508.693734  -9008.886005  20707.313013    808.934907                    
V  1   1836.173446  26813.957392  10667.149725     -0.035768                    
P  2 -13792.518866 -13826.315864 -17358.762493   -540.655743                    
V  2   -857.720097 -23389.892680  18610.414482     -0.047468                    
P  3  23091.755213 -12789.166934   2331.562757      0.098912                    
V  3  -1137.497683   3926.163788  31772.620693     -0.100992                    
P  4  19405.169037  -3389.674378 -17831.894293   -153.889621                    
V  4  18929.607328  12515.950720  18174.736268     -0.036622                    
P  5 -18987.484133  -2951.210913 -18569.007639    -25.515048                    
V  5  18332.059201 -14319.028100 -16424.995933     -0.009409                    
P  6  -5879.768451 -24846.930931  -7185.725609     -0.363563                    
V  6   1671.431241  -9272.121675  30484.091029     -0.016951                    
P  7   6591.597429 -23137.445211 -10364.988686   -411.276214                    
V  7   3614.538284  13710.554441 -27927.272950     -0.077203                    
P  8  24190.595119   3991.625508  10568.457393    -54.573532                    
V  8  10975.110912   7778.095217 -27824.193085     -0.013821                    
P  9   8528.652722 -12931.651901 -21638.341543   -287.626899                    
V  9  24371.566187  12423.773027   2169.963236     -0.048861                    
P 10  -2574.658129  17723.236263  19618.227978   -501.018328                    
V 10 -21555.398106  12289.612472 -14250.373386     -0.091949                    
P 11  17383.151314     43.186392  19536.338718   -112.836526                    
V 11  11498.835320  23488.771581 -10409.751374      0.105430                    
P 12 -24202.620138   9638.006652   4501.762835     42.380015                    
V 12   4137.611500  -5020.497331  31504.232107     -0.051492                    
P 13 -22914.265101 -13056.548795   3506.014707     63.383548                    
V 13  -2351.582439  -4664.888296 -31425.108379      0.038309                    
P 15 -24403.368065  -1024.990605  10521.792628   -191.034598                    
V 15 -11739.341928  -7926.338104 -26730.853358      0.025937                    
P 16  19231.819504   3994.386060 -18309.452069   -234.379700                    
V 16 -19609.885549  11267.292924 -17918.819640     -0.052900                    
P 17  -9626.857493 -18698.664873  16669.397267    351.877292                    
V 17  18057.357803   9346.930834  21445.621961      0.051320                    
P 18  -5902.117639  24162.663428  -9248.671338    319.387275                    
V 18  -2683.608694 -11689.177518 -28904.317562      0.049847                    
P 19 -15404.480038 -18725.629365  10642.149781    -80.295236                    
V 19  12630.151345   6076.266291  28148.263555      0.050282                    
P 20 -12509.525323  20781.671819  10439.507802    526.080782                    
V 20 -12459.826462   6195.464176 -27332.397996     -0.001469                    
P 21  15892.428529   2471.294561  21937.677897     66.709069                    
V 21   2715.451093  25928.213623  -4719.365583      0.038493                    
P 22  23039.217066  -7886.251379  10612.291698   -732.033967                    
V 22  -8494.523693  10755.926095  27084.313515      0.052379                    
P 23 -12765.378815  19388.726065  12851.311582     98.384954                    
V 23 -14861.351117   7249.508586 -25661.645984      0.048270                    
P 24 -15008.517425   5196.001942  21029.936452      6.624660                    
V 24  -3650.325709 -27122.883568   4439.193612     -0.005073                    
P 25 -18629.659363  17523.787435  -6862.963981     19.598077                    
V 25  -8630.063985   2200.769829  30362.644277      0.064680                    
P 26   9224.834583  12570.678924 -21538.796651    309.353837                    
V 26 -22502.535801  15504.510388   -344.468041      0.060695                    
P 27  23529.222887  12718.508628   -621.573307    -10.304923                    
V 27  -1458.453052   1496.973024 -31873.577473     -0.083959                    
P 28   2462.923556 -17102.118354  20799.156392    657.347969                    
V 28  22573.905669 -10819.822074 -11741.165444     -0.046560                    
P 29 -11239.322380  10123.317902 -21874.298627   -233.408348                    
V 29 -23358.434189 -14722.309275   5152.066704     -0.077218                    
P 30    587.784900 -26399.557782  -1290.571619   -332.948270                    
V 30   3748.790324   1663.083345 -31326.456550     -0.066652                    
P 31   7109.329239  23524.975425  -9508.425841    -80.487971                    
V 31  -2776.653240  12193.531764  28729.850785     -0.024243                    
P 32  10532.373076  18296.238404  16297.645509    366.037785                    
V 32 -19067.062990  -7705.875264  20928.165241      0.033838                    
EOF
